{
  "type": "FeatureCollection",
  "features": [
    {
      "type": "Feature",
      "properties": {
        "OBJECT_NAME": "GALAXY 36 (G-36)",
        "OBJECT_ID": "2022-170B",
        "EPOCH": "2025-11-29T18:34:57.427392",
        "MEAN_MOTION": 1.00271692,
        "ECCENTRICITY": 4.54e-05,
        "INCLINATION": 0.023,
        "RA_OF_ASC_NODE": 85.9808,
        "ARG_OF_PERICENTER": 139.5265,
        "MEAN_ANOMALY": 33.1604,
        "EPHEMERIS_TYPE": 0,
        "CLASSIFICATION_TYPE": "U",
        "NORAD_CAT_ID": 54742,
        "ELEMENT_SET_NO": 999,
        "REV_AT_EPOCH": 1077,
        "BSTAR": 0,
        "MEAN_MOTION_DOT": -1.64e-06,
        "MEAN_MOTION_DDOT": 0,
        "norad_id": 54742,
        "name": "GALAXY 36 (G-36)",
        "group": "intelsat",
        "longitude_deg": NaN,
        "latitude_deg": NaN,
        "alt_km": NaN,
        "orbit_class": "HEO",
        "timestamp": "2025-11-30T04:58:49.630474+00:00"
      },
      "geometry": {
        "type": "Point",
        "coordinates": [
          NaN,
          NaN
        ]
      }
    },
    {
      "type": "Feature",
      "properties": {
        "OBJECT_NAME": "GALAXY 37 (G-37)",
        "OBJECT_ID": "2023-112A",
        "EPOCH": "2025-11-29T16:41:12.897024",
        "MEAN_MOTION": 1.00271858,
        "ECCENTRICITY": 0.0002214,
        "INCLINATION": 0.0171,
        "RA_OF_ASC_NODE": 32.5375,
        "ARG_OF_PERICENTER": 221.0573,
        "MEAN_ANOMALY": 298.5522,
        "EPHEMERIS_TYPE": 0,
        "CLASSIFICATION_TYPE": "U",
        "NORAD_CAT_ID": 57493,
        "ELEMENT_SET_NO": 999,
        "REV_AT_EPOCH": 854,
        "BSTAR": 0,
        "MEAN_MOTION_DOT": 6.9e-07,
        "MEAN_MOTION_DDOT": 0,
        "norad_id": 57493,
        "name": "GALAXY 37 (G-37)",
        "group": "intelsat",
        "longitude_deg": NaN,
        "latitude_deg": NaN,
        "alt_km": NaN,
        "orbit_class": "HEO",
        "timestamp": "2025-11-30T04:58:49.641261+00:00"
      },
      "geometry": {
        "type": "Point",
        "coordinates": [
          NaN,
          NaN
        ]
      }
    }
  ]
}