GALAXY 36 (G-36)        
1 54742U 22170B   25333.77427578 -.00000164  00000+0  00000+0 0  9997
2 54742   0.0230  85.9808 0000454 139.5265  33.1604  1.00271692 10771
GALAXY 37 (G-37)        
1 57493U 23112A   25333.69528816  .00000069  00000+0  00000+0 0  9991
2 57493   0.0171  32.5375 0002214 221.0573 298.5522  1.00271858  8545
